[{"OBJECT_NAME":"STARLINK-5068","OBJECT_ID":"2023-014AJ","EPOCH":"2026-03-09T10:43:04.439424","MEAN_MOTION":14.98327616,"ECCENTRICITY":0.00033795,"INCLINATION":69.9991,"RA_OF_ASC_NODE":85.157,"ARG_OF_PERICENTER":269.503,"MEAN_ANOMALY":90.5742,"EPHEMERIS_TYPE":0,"CLASSIFICATION_TYPE":"U","NORAD_CAT_ID":55423,"ELEMENT_SET_NO":999,"REV_AT_EPOCH":17152,"BSTAR":-3.3395787e-5,"MEAN_MOTION_DOT":-4.91e-6,"MEAN_MOTION_DDOT":0},{"OBJECT_NAME":"STEP 2","OBJECT_ID":"1994-029A","EPOCH":"2026-03-09T19:35:47.124096","MEAN_MOTION":14.90069818,"ECCENTRICITY":0.0082455,"INCLINATION":81.9356,"RA_OF_ASC_NODE":275.268,"ARG_OF_PERICENTER":225.1907,"MEAN_ANOMALY":134.2589,"EPHEMERIS_TYPE":0,"CLASSIFICATION_TYPE":"U","NORAD_CAT_ID":23105,"ELEMENT_SET_NO":999,"REV_AT_EPOCH":70508,"BSTAR":0.00037800709,"MEAN_MOTION_DOT":3.917e-5,"MEAN_MOTION_DDOT":0}]
